QIANFAN-52              
1 62253U 24232S   26064.16228200  .00000087  00000+0  11563-3 0  9993
2 62253  89.0053  32.7870 0014143 321.2042  38.8093 13.51000762 79078
QIANFAN-53              
1 62254U 24232T   26064.14167905  .00000062  00000+0  77663-4 0  9993
2 62254  89.0060  32.8998 0013070 323.0647  36.9603 13.51003443 79039
QIANFAN-54              
1 62255U 24232U   26064.18285843  .00000072  00000+0  93581-4 0  9998
2 62255  89.0052  32.5669 0003141  39.9730 320.1652 13.51002863110546
QIANFAN-55              
1 62785U 25016A   26064.13484439  .00000060  00000+0  73557-4 0  9992
2 62785  88.9693  94.6856 0019416 109.0101 251.3156 13.50996302 58312
QIANFAN-56              
1 62786U 25016B   26064.15121684  .00000049  00000+0  57255-4 0  9999
2 62786  88.9666  94.4980 0018051 110.9849 249.3235 13.50998165 58362
QIANFAN-57              
1 62787U 25016C   26064.11013004  .00000059  00000+0  72866-4 0  9998
2 62787  88.9697  94.6814 0001363  98.6484 261.4821 13.50997076 58322
QIANFAN-58              
1 62788U 25016D   26064.15532837  .00000061  00000+0  76167-4 0  9994
2 62788  88.9666  94.4829 0016014 104.1133 256.1799 13.50998715 58377
QIANFAN-59              
1 62789U 25016E   26064.10610352  .00000064  00000+0  79402-4 0  9997
2 62789  88.9690  94.5813 0016351 107.5415 252.7524 13.50994585 58361
QIANFAN-60              
1 62790U 25016F   26064.13903182  .00000052  00000+0  61668-4 0  9990
2 62790  88.9671  94.5336 0017927 104.5260 255.7881 13.50992544 58358
QIANFAN-61              
1 62791U 25016G   26063.87569750  .00000060  00000+0  73167-4 0  9996
2 62791  88.9738  94.7800 0016849 104.5529 255.7492 13.50993856 58334
QIANFAN-62              
1 62792U 25016H   26064.10193427  .00000055  00000+0  66862-4 0  9996
2 62792  88.9685  94.5804 0018228 104.3469 255.9707 13.50996571 58352
QIANFAN-63              
1 62793U 25016J   26064.12665554  .00000060  00000+0  73227-4 0  9993
2 62793  88.9692  94.5348 0018267 109.0599 251.2532 13.50995231 58394
QIANFAN-64              
1 62794U 25016K   26064.09376605  .00000043  00000+0  47428-4 0  9991
2 62794  88.9679  94.5014 0016217 102.6996 257.5970 13.51005440 58382
QIANFAN-65              
1 62795U 25016L   26064.16362201  .00000046  00000+0  52804-4 0  9994
2 62795  88.9675  94.5171 0016079 104.0774 256.2165 13.51008762 58370
QIANFAN-66              
1 62796U 25016M   26064.11836122  .00000055  00000+0  66552-4 0  9993
2 62796  88.9694  94.5081 0017196 100.4780 259.8310 13.50996908 58413
QIANFAN-67              
1 62797U 25016N   26064.12242082  .00000054  00000+0  64325-4 0  9996
2 62797  88.9685  94.5251 0017135 106.4812 253.8224 13.50995271 58384
QIANFAN-68              
1 62798U 25016P   26064.11433572  .00000063  00000+0  78909-4 0  9995
2 62798  88.9688  94.5742 0017206 104.9888 255.3169 13.51005254 58365
