[{"OBJECT_NAME":"QIANFAN-52","OBJECT_ID":"2024-232S","EPOCH":"2026-03-05T03:53:41.164800","MEAN_MOTION":13.51000762,"ECCENTRICITY":0.0014143,"INCLINATION":89.0053,"RA_OF_ASC_NODE":32.787,"ARG_OF_PERICENTER":321.2042,"MEAN_ANOMALY":38.8093,"EPHEMERIS_TYPE":0,"CLASSIFICATION_TYPE":"U","NORAD_CAT_ID":62253,"ELEMENT_SET_NO":999,"REV_AT_EPOCH":7907,"BSTAR":0.00011563,"MEAN_MOTION_DOT":8.7e-7,"MEAN_MOTION_DDOT":0},{"OBJECT_NAME":"QIANFAN-53","OBJECT_ID":"2024-232T","EPOCH":"2026-03-05T03:24:01.069920","MEAN_MOTION":13.51003443,"ECCENTRICITY":0.001307,"INCLINATION":89.006,"RA_OF_ASC_NODE":32.8998,"ARG_OF_PERICENTER":323.0647,"MEAN_ANOMALY":36.9603,"EPHEMERIS_TYPE":0,"CLASSIFICATION_TYPE":"U","NORAD_CAT_ID":62254,"ELEMENT_SET_NO":999,"REV_AT_EPOCH":7903,"BSTAR":7.7663e-5,"MEAN_MOTION_DOT":6.2e-7,"MEAN_MOTION_DDOT":0},{"OBJECT_NAME":"QIANFAN-54","OBJECT_ID":"2024-232U","EPOCH":"2026-03-05T04:23:18.968352","MEAN_MOTION":13.51002863,"ECCENTRICITY":0.0003141,"INCLINATION":89.0052,"RA_OF_ASC_NODE":32.5669,"ARG_OF_PERICENTER":39.973,"MEAN_ANOMALY":320.1652,"EPHEMERIS_TYPE":0,"CLASSIFICATION_TYPE":"U","NORAD_CAT_ID":62255,"ELEMENT_SET_NO":999,"REV_AT_EPOCH":11054,"BSTAR":9.3581e-5,"MEAN_MOTION_DOT":7.2e-7,"MEAN_MOTION_DDOT":0},{"OBJECT_NAME":"QIANFAN-55","OBJECT_ID":"2025-016A","EPOCH":"2026-03-05T03:14:10.555296","MEAN_MOTION":13.50996302,"ECCENTRICITY":0.0019416,"INCLINATION":88.9693,"RA_OF_ASC_NODE":94.6856,"ARG_OF_PERICENTER":109.0101,"MEAN_ANOMALY":251.3156,"EPHEMERIS_TYPE":0,"CLASSIFICATION_TYPE":"U","NORAD_CAT_ID":62785,"ELEMENT_SET_NO":999,"REV_AT_EPOCH":5831,"BSTAR":7.3557e-5,"MEAN_MOTION_DOT":6.0e-7,"MEAN_MOTION_DDOT":0},{"OBJECT_NAME":"QIANFAN-56","OBJECT_ID":"2025-016B","EPOCH":"2026-03-05T03:37:45.134976","MEAN_MOTION":13.50998165,"ECCENTRICITY":0.0018051,"INCLINATION":88.9666,"RA_OF_ASC_NODE":94.498,"ARG_OF_PERICENTER":110.9849,"MEAN_ANOMALY":249.3235,"EPHEMERIS_TYPE":0,"CLASSIFICATION_TYPE":"U","NORAD_CAT_ID":62786,"ELEMENT_SET_NO":999,"REV_AT_EPOCH":5836,"BSTAR":5.7255e-5,"MEAN_MOTION_DOT":4.9e-7,"MEAN_MOTION_DDOT":0},{"OBJECT_NAME":"QIANFAN-57","OBJECT_ID":"2025-016C","EPOCH":"2026-03-05T02:38:35.235456","MEAN_MOTION":13.50997076,"ECCENTRICITY":0.0001363,"INCLINATION":88.9697,"RA_OF_ASC_NODE":94.6814,"ARG_OF_PERICENTER":98.6484,"MEAN_ANOMALY":261.4821,"EPHEMERIS_TYPE":0,"CLASSIFICATION_TYPE":"U","NORAD_CAT_ID":62787,"ELEMENT_SET_NO":999,"REV_AT_EPOCH":5832,"BSTAR":7.2866e-5,"MEAN_MOTION_DOT":5.9e-7,"MEAN_MOTION_DDOT":0},{"OBJECT_NAME":"QIANFAN-58","OBJECT_ID":"2025-016D","EPOCH":"2026-03-05T03:43:40.371168","MEAN_MOTION":13.50998715,"ECCENTRICITY":0.0016014,"INCLINATION":88.9666,"RA_OF_ASC_NODE":94.4829,"ARG_OF_PERICENTER":104.1133,"MEAN_ANOMALY":256.1799,"EPHEMERIS_TYPE":0,"CLASSIFICATION_TYPE":"U","NORAD_CAT_ID":62788,"ELEMENT_SET_NO":999,"REV_AT_EPOCH":5837,"BSTAR":7.6167e-5,"MEAN_MOTION_DOT":6.1e-7,"MEAN_MOTION_DDOT":0},{"OBJECT_NAME":"QIANFAN-59","OBJECT_ID":"2025-016E","EPOCH":"2026-03-05T02:32:47.344128","MEAN_MOTION":13.50994585,"ECCENTRICITY":0.0016351,"INCLINATION":88.969,"RA_OF_ASC_NODE":94.5813,"ARG_OF_PERICENTER":107.5415,"MEAN_ANOMALY":252.7524,"EPHEMERIS_TYPE":0,"CLASSIFICATION_TYPE":"U","NORAD_CAT_ID":62789,"ELEMENT_SET_NO":999,"REV_AT_EPOCH":5836,"BSTAR":7.9402e-5,"MEAN_MOTION_DOT":6.4e-7,"MEAN_MOTION_DDOT":0},{"OBJECT_NAME":"QIANFAN-60","OBJECT_ID":"2025-016F","EPOCH":"2026-03-05T03:20:12.349248","MEAN_MOTION":13.50992544,"ECCENTRICITY":0.0017927,"INCLINATION":88.9671,"RA_OF_ASC_NODE":94.5336,"ARG_OF_PERICENTER":104.526,"MEAN_ANOMALY":255.7881,"EPHEMERIS_TYPE":0,"CLASSIFICATION_TYPE":"U","NORAD_CAT_ID":62790,"ELEMENT_SET_NO":999,"REV_AT_EPOCH":5835,"BSTAR":6.1668e-5,"MEAN_MOTION_DOT":5.2e-7,"MEAN_MOTION_DDOT":0},{"OBJECT_NAME":"QIANFAN-61","OBJECT_ID":"2025-016G","EPOCH":"2026-03-04T21:01:00.264000","MEAN_MOTION":13.50993856,"ECCENTRICITY":0.0016849,"INCLINATION":88.9738,"RA_OF_ASC_NODE":94.78,"ARG_OF_PERICENTER":104.5529,"MEAN_ANOMALY":255.7492,"EPHEMERIS_TYPE":0,"CLASSIFICATION_TYPE":"U","NORAD_CAT_ID":62791,"ELEMENT_SET_NO":999,"REV_AT_EPOCH":5833,"BSTAR":7.3167e-5,"MEAN_MOTION_DOT":6.0e-7,"MEAN_MOTION_DDOT":0},{"OBJECT_NAME":"QIANFAN-62","OBJECT_ID":"2025-016H","EPOCH":"2026-03-05T02:26:47.120928","MEAN_MOTION":13.50996571,"ECCENTRICITY":0.0018228,"INCLINATION":88.9685,"RA_OF_ASC_NODE":94.5804,"ARG_OF_PERICENTER":104.3469,"MEAN_ANOMALY":255.9707,"EPHEMERIS_TYPE":0,"CLASSIFICATION_TYPE":"U","NORAD_CAT_ID":62792,"ELEMENT_SET_NO":999,"REV_AT_EPOCH":5835,"BSTAR":6.6862e-5,"MEAN_MOTION_DOT":5.5e-7,"MEAN_MOTION_DDOT":0},{"OBJECT_NAME":"QIANFAN-63","OBJECT_ID":"2025-016J","EPOCH":"2026-03-05T03:02:23.038656","MEAN_MOTION":13.50995231,"ECCENTRICITY":0.0018267,"INCLINATION":88.9692,"RA_OF_ASC_NODE":94.5348,"ARG_OF_PERICENTER":109.0599,"MEAN_ANOMALY":251.2532,"EPHEMERIS_TYPE":0,"CLASSIFICATION_TYPE":"U","NORAD_CAT_ID":62793,"ELEMENT_SET_NO":999,"REV_AT_EPOCH":5839,"BSTAR":7.3227e-5,"MEAN_MOTION_DOT":6.0e-7,"MEAN_MOTION_DDOT":0},{"OBJECT_NAME":"QIANFAN-64","OBJECT_ID":"2025-016K","EPOCH":"2026-03-05T02:15:01.386720","MEAN_MOTION":13.5100544,"ECCENTRICITY":0.0016217,"INCLINATION":88.9679,"RA_OF_ASC_NODE":94.5014,"ARG_OF_PERICENTER":102.6996,"MEAN_ANOMALY":257.597,"EPHEMERIS_TYPE":0,"CLASSIFICATION_TYPE":"U","NORAD_CAT_ID":62794,"ELEMENT_SET_NO":999,"REV_AT_EPOCH":5838,"BSTAR":4.7428e-5,"MEAN_MOTION_DOT":4.3e-7,"MEAN_MOTION_DDOT":0},{"OBJECT_NAME":"QIANFAN-65","OBJECT_ID":"2025-016L","EPOCH":"2026-03-05T03:55:36.941664","MEAN_MOTION":13.51008762,"ECCENTRICITY":0.0016079,"INCLINATION":88.9675,"RA_OF_ASC_NODE":94.5171,"ARG_OF_PERICENTER":104.0774,"MEAN_ANOMALY":256.2165,"EPHEMERIS_TYPE":0,"CLASSIFICATION_TYPE":"U","NORAD_CAT_ID":62795,"ELEMENT_SET_NO":999,"REV_AT_EPOCH":5837,"BSTAR":5.2804e-5,"MEAN_MOTION_DOT":4.6e-7,"MEAN_MOTION_DDOT":0},{"OBJECT_NAME":"QIANFAN-66","OBJECT_ID":"2025-016M","EPOCH":"2026-03-05T02:50:26.409408","MEAN_MOTION":13.50996908,"ECCENTRICITY":0.0017196,"INCLINATION":88.9694,"RA_OF_ASC_NODE":94.5081,"ARG_OF_PERICENTER":100.478,"MEAN_ANOMALY":259.831,"EPHEMERIS_TYPE":0,"CLASSIFICATION_TYPE":"U","NORAD_CAT_ID":62796,"ELEMENT_SET_NO":999,"REV_AT_EPOCH":5841,"BSTAR":6.6552e-5,"MEAN_MOTION_DOT":5.5e-7,"MEAN_MOTION_DDOT":0},{"OBJECT_NAME":"QIANFAN-67","OBJECT_ID":"2025-016N","EPOCH":"2026-03-05T02:56:17.158848","MEAN_MOTION":13.50995271,"ECCENTRICITY":0.0017135,"INCLINATION":88.9685,"RA_OF_ASC_NODE":94.5251,"ARG_OF_PERICENTER":106.4812,"MEAN_ANOMALY":253.8224,"EPHEMERIS_TYPE":0,"CLASSIFICATION_TYPE":"U","NORAD_CAT_ID":62797,"ELEMENT_SET_NO":999,"REV_AT_EPOCH":5838,"BSTAR":6.4325e-5,"MEAN_MOTION_DOT":5.4e-7,"MEAN_MOTION_DDOT":0},{"OBJECT_NAME":"QIANFAN-68","OBJECT_ID":"2025-016P","EPOCH":"2026-03-05T02:44:38.606208","MEAN_MOTION":13.51005254,"ECCENTRICITY":0.0017206,"INCLINATION":88.9688,"RA_OF_ASC_NODE":94.5742,"ARG_OF_PERICENTER":104.9888,"MEAN_ANOMALY":255.3169,"EPHEMERIS_TYPE":0,"CLASSIFICATION_TYPE":"U","NORAD_CAT_ID":62798,"ELEMENT_SET_NO":999,"REV_AT_EPOCH":5836,"BSTAR":7.8909e-5,"MEAN_MOTION_DOT":6.3e-7,"MEAN_MOTION_DDOT":0}]
